STARLETTE               
1 07646U 75010A   21055.45860330 -.00000156  00000-0 -92596-5 0  9998
2 07646  49.8224 196.8210 0205795 138.6023 223.0671 13.82308972326366
LAGEOS 1                
1 08820U 76039A   21055.46872807  .00000033  00000-0  00000-0 0  9994
2 08820 109.8205 235.2351 0045010 356.4913 346.6682  6.38664682789634
AJISAI (EGS)            
1 16908U 86061A   21055.52987023 -.00000089  00000-0  60235-4 0  9992
2 16908  50.0119 348.5896 0011283 286.2967 245.1747 12.44493155239080
COSMOS 1989 (ETALON 1)  
1 19751U 89001C   21055.40369642  .00000008  00000-0  00000-0 0  9996
2 19751  64.2130 138.8202 0023072 211.6559 246.1615  2.13156297250040
COSMOS 2024 (ETALON 2)  
1 20026U 89039C   21055.31272481 -.00000046  00000-0  00000-0 0  9991
2 20026  65.5347  16.5864 0018317 220.3406 357.7868  2.13204281247166
LAGEOS 2                
1 22195U 92070B   21055.57179913 -.00000009  00000-0  00000-0 0  9992
2 22195  52.6671  51.8094 0137441  59.7416  69.1452  6.47293718670037
STELLA                  
1 22824U 93061B   21055.55572312 -.00000028  00000-0  75643-5 0  9991
2 22824  98.9766  58.8658 0007452  97.2969  18.3546 14.27383444428208
LARES                   
1 38077U 12006A   21055.21464422 -.00000042  00000-0 -19960-4 0  9999
2 38077  69.4968   4.1806 0006344  70.0153 290.1556 12.54930951413905
